{
  "norad_id": 57529,
  "name": "STARLINK-30266",
  "history": [
    {
      "epoch": "2026-03-28T20:21:37.599840Z",
      "apogee_km": 483.93030453993924,
      "perigee_km": 482.53140886131587,
      "latitude_deg": 9.952990251479437e-06,
      "longitude_deg": 121.53743496701077,
      "height_km": 482.9950408649596,
      "semi_major_axis_km": 6861.367856700627,
      "eccentricity": 0.00010194,
      "inclination_deg": 43.005,
      "raan_deg": 253.207,
      "arg_perigee_deg": 271.045,
      "mean_anomaly_deg": 89.0285,
      "mean_motion_rev_day": 15.27519301
    }
  ]
}